{
  "norad_id": 68133,
  "name": "GUOWANG GROUP 20 OBJECT E",
  "history": [
    {
      "epoch": "2026-03-24T07:42:54.851616Z",
      "apogee_km": 891.5095659700473,
      "perigee_km": 886.8146000704528,
      "latitude_deg": 1.134358306390977e-05,
      "longitude_deg": 73.31085927199013,
      "height_km": 892.0077558081764,
      "semi_major_axis_km": 7267.29908302025,
      "eccentricity": 0.00032302,
      "inclination_deg": 49.9979,
      "raan_deg": 10.8404,
      "arg_perigee_deg": 188.5214,
      "mean_anomaly_deg": 171.5635,
      "mean_motion_rev_day": 14.01339008
    }
  ]
}